YAOGAN-30 07A           
1 45460U 20021A   26068.55604639  .00004701  00000+0  35264-3 0  9998
2 45460  34.9941  97.9026 0004392 231.7665 128.2648 15.02093562325567
STARLINK-34993          
1 65389U 25191L   26068.53458640  .00004257  00000+0  29904-3 0  9990
2 65389  97.6031 301.3335 0002374  85.0173 275.1325 15.05653231 30242
